{"type": "FeatureCollection", "features": [ {"type": "Feature", "properties": {"norad_id": 28659, "name": "DIRECTV 8", "group": "intelsat", "lat": 0.029367739727125256, "lon": 24.397815182426182, "alt_km": 35790.59203326289, "timestamp": "2025-12-16T03:53:26.726315+00:00", "meta": {"OBJECT_NAME": "DIRECTV 8", "OBJECT_ID": "2005-019A", "EPOCH": "2025-12-15T08:27:38.617056", "MEAN_MOTION": 1.00272385, "ECCENTRICITY": 0.00029188, "INCLINATION": 0.0143, "RA_OF_ASC_NODE": 297.3516, "ARG_OF_PERICENTER": 334.683, "MEAN_ANOMALY": 180.0933, "EPHEMERIS_TYPE": 0, "CLASSIFICATION_TYPE": "U", "NORAD_CAT_ID": 28659, "ELEMENT_SET_NO": 999, "REV_AT_EPOCH": 7523, "BSTAR": 0, "MEAN_MOTION_DOT": 2.2e-07, "MEAN_MOTION_DDOT": 0}, "tle": {"line1": "1 28659U 05019A   25349.35253029  .00000022  00000+0  00000+0 0  9999", "line2": "2 28659   0.0143 297.3516 0002918 334.6830 180.0933  1.00272385 75239"}}, "geometry": {"type": "Point", "coordinates": [24.397815182426182, 0.029367739727125256]}}, {"type": "Feature", "properties": {"norad_id": 28702, "name": "GALAXY 28 (G-28)", "group": "intelsat", "lat": -1.2386025698302214, "lon": 54.76291029544014, "alt_km": 35796.45015702518, "timestamp": "2025-12-16T03:53:26.726327+00:00", "meta": {"OBJECT_NAME": "GALAXY 28 (G-28)", "OBJECT_ID": "2005-022A", "EPOCH": "2025-12-15T08:19:38.704800", "MEAN_MOTION": 1.00271283, "ECCENTRICITY": 0.00028567, "INCLINATION": 2.8258, "RA_OF_ASC_NODE": 81.2517, "ARG_OF_PERICENTER": 187.6662, "MEAN_ANOMALY": 211.5554, "EPHEMERIS_TYPE": 0, "CLASSIFICATION_TYPE": "U", "NORAD_CAT_ID": 28702, "ELEMENT_SET_NO": 999, "REV_AT_EPOCH": 5013, "BSTAR": 0, "MEAN_MOTION_DOT": -1.67e-06, "MEAN_MOTION_DDOT": 0}, "tle": {"line1": "1 28702U 05022A   25349.34697575 -.00000167  00000+0  00000+0 0  9990", "line2": "2 28702   2.8258  81.2517 0002856 187.6662 211.5554  1.00271283 50133"}}, "geometry": {"type": "Point", "coordinates": [54.76291029544014, -1.2386025698302214]}}, {"type": "Feature", "properties": {"norad_id": 29236, "name": "GALAXY 16 (G-16)", "group": "intelsat", "lat": 0.019714769618627226, "lon": 44.42181439727286, "alt_km": 35794.5985193195, "timestamp": "2025-12-16T03:53:26.726338+00:00", "meta": {"OBJECT_NAME": "GALAXY 16 (G-16)", "OBJECT_ID": "2006-023A", "EPOCH": "2025-12-15T09:07:38.849664", "MEAN_MOTION": 1.0027222, "ECCENTRICITY": 0.00024927, "INCLINATION": 0.0349, "RA_OF_ASC_NODE": 222.8518, "ARG_OF_PERICENTER": 36.8162, "MEAN_ANOMALY": 222.5275, "EPHEMERIS_TYPE": 0, "CLASSIFICATION_TYPE": "U", "NORAD_CAT_ID": 29236, "ELEMENT_SET_NO": 999, "REV_AT_EPOCH": 7113, "BSTAR": 0, "MEAN_MOTION_DOT": -1.06e-06, "MEAN_MOTION_DDOT": 0}, "tle": {"line1": "1 29236U 06023A   25349.38031076 -.00000106  00000+0  00000+0 0  9990", "line2": "2 29236   0.0349 222.8518 0002492  36.8162 222.5275  1.00272220 71134"}}, "geometry": {"type": "Point", "coordinates": [44.42181439727286, 0.019714769618627226]}}, {"type": "Feature", "properties": {"norad_id": 29494, "name": "DIRECTV 9S", "group": "intelsat", "lat": -1.2558657685386052, "lon": 42.23772271757537, "alt_km": 35794.612888234486, "timestamp": "2025-12-16T03:53:26.726351+00:00", "meta": {"OBJECT_NAME": "DIRECTV 9S", "OBJECT_ID": "2006-043A", "EPOCH": "2025-12-15T09:07:38.849664", "MEAN_MOTION": 1.00271967, "ECCENTRICITY": 0.00028727, "INCLINATION": 1.9469, "RA_OF_ASC_NODE": 83.1845, "ARG_OF_PERICENTER": 185.4098, "MEAN_ANOMALY": 211.3917, "EPHEMERIS_TYPE": 0, "CLASSIFICATION_TYPE": "U", "NORAD_CAT_ID": 29494, "ELEMENT_SET_NO": 999, "REV_AT_EPOCH": 4954, "BSTAR": 0, "MEAN_MOTION_DOT": -9.3e-07, "MEAN_MOTION_DDOT": 0}, "tle": {"line1": "1 29494U 06043A   25349.38031076 -.00000093  00000+0  00000+0 0  9993", "line2": "2 29494   1.9469  83.1845 0002872 185.4098 211.3917  1.00271967 49541"}}, "geometry": {"type": "Point", "coordinates": [42.23772271757537, -1.2558657685386052]}}, {"type": "Feature", "properties": {"norad_id": 31307, "name": "GALAXY 17 (G-17)", "group": "intelsat", "lat": -0.9885042046153903, "lon": 58.46569634648177, "alt_km": 35809.62478839658, "timestamp": "2025-12-16T03:53:26.726369+00:00", "meta": {"OBJECT_NAME": "GALAXY 17 (G-17)", "OBJECT_ID": "2007-016B", "EPOCH": "2025-12-15T06:08:04.894080", "MEAN_MOTION": 1.00272279, "ECCENTRICITY": 0.00056384, "INCLINATION": 2.5064, "RA_OF_ASC_NODE": 82.2573, "ARG_OF_PERICENTER": 166.4872, "MEAN_ANOMALY": 202.4623, "EPHEMERIS_TYPE": 0, "CLASSIFICATION_TYPE": "U", "NORAD_CAT_ID": 31307, "ELEMENT_SET_NO": 999, "REV_AT_EPOCH": 6796, "BSTAR": 0, "MEAN_MOTION_DOT": -1.87e-06, "MEAN_MOTION_DDOT": 0}, "tle": {"line1": "1 31307U 07016B   25349.25561220 -.00000187  00000+0  00000+0 0  9999", "line2": "2 31307   2.5064  82.2573 0005638 166.4872 202.4623  1.00272279 67963"}}, "geometry": {"type": "Point", "coordinates": [58.46569634648177, -0.9885042046153903]}}, {"type": "Feature", "properties": {"norad_id": 31862, "name": "DIRECTV 10", "group": "intelsat", "lat": -0.0006399380222393083, "lon": 40.61737384152653, "alt_km": 35787.43216143091, "timestamp": "2025-12-16T03:53:26.726396+00:00", "meta": {"OBJECT_NAME": "DIRECTV 10", "OBJECT_ID": "2007-032A", "EPOCH": "2025-12-14T23:12:12.472128", "MEAN_MOTION": 1.00271392, "ECCENTRICITY": 2.968e-05, "INCLINATION": 0.0094, "RA_OF_ASC_NODE": 227.6854, "ARG_OF_PERICENTER": 342.3878, "MEAN_ANOMALY": 119.0703, "EPHEMERIS_TYPE": 0, "CLASSIFICATION_TYPE": "U", "NORAD_CAT_ID": 31862, "ELEMENT_SET_NO": 999, "REV_AT_EPOCH": 4374, "BSTAR": 0, "MEAN_MOTION_DOT": -8.3e-07, "MEAN_MOTION_DDOT": 0}, "tle": {"line1": "1 31862U 07032A   25348.96681102 -.00000083  00000+0  00000+0 0  9997", "line2": "2 31862   0.0094 227.6854 0000296 342.3878 119.0703  1.00271392 43745"}}, "geometry": {"type": "Point", "coordinates": [40.61737384152653, -0.0006399380222393083]}}, {"type": "Feature", "properties": {"norad_id": 32253, "name": "INTELSAT 11 (IS-11)", "group": "intelsat", "lat": -3.0796119577350396, "lon": -5.872516300149637, "alt_km": 36142.639316053406, "timestamp": "2025-12-16T03:53:26.726413+00:00", "meta": {"OBJECT_NAME": "INTELSAT 11 (IS-11)", "OBJECT_ID": "2007-044B", "EPOCH": "2025-12-15T08:42:38.638944", "MEAN_MOTION": 0.99050129, "ECCENTRICITY": 0.00086982, "INCLINATION": 3.0869, "RA_OF_ASC_NODE": 80.9479, "ARG_OF_PERICENTER": 166.9846, "MEAN_ANOMALY": 181.127, "EPHEMERIS_TYPE": 0, "CLASSIFICATION_TYPE": "U", "NORAD_CAT_ID": 32253, "ELEMENT_SET_NO": 999, "REV_AT_EPOCH": 6662, "BSTAR": 0, "MEAN_MOTION_DOT": 5.6e-07, "MEAN_MOTION_DDOT": 0}, "tle": {"line1": "1 32253U 07044B   25349.36294721  .00000056  00000+0  00000+0 0  9996", "line2": "2 32253   3.0869  80.9479 0008698 166.9846 181.1270  0.99050129 66626"}}, "geometry": {"type": "Point", "coordinates": [-5.872516300149637, -3.0796119577350396]}}, {"type": "Feature", "properties": {"norad_id": 32388, "name": "HORIZONS-2", "group": "intelsat", "lat": -0.4653218861187605, "lon": 69.64409902051229, "alt_km": 35803.750688490516, "timestamp": "2025-12-16T03:53:26.726439+00:00", "meta": {"OBJECT_NAME": "HORIZONS-2", "OBJECT_ID": "2007-063B", "EPOCH": "2025-12-15T06:11:19.582656", "MEAN_MOTION": 1.00273576, "ECCENTRICITY": 0.00046137, "INCLINATION": 2.1279, "RA_OF_ASC_NODE": 82.9382, "ARG_OF_PERICENTER": 189.4821, "MEAN_ANOMALY": 190.7774, "EPHEMERIS_TYPE": 0, "CLASSIFICATION_TYPE": "U", "NORAD_CAT_ID": 32388, "ELEMENT_SET_NO": 999, "REV_AT_EPOCH": 6597, "BSTAR": 0, "MEAN_MOTION_DOT": -2.34e-06, "MEAN_MOTION_DDOT": 0}, "tle": {"line1": "1 32388U 07063B   25349.25786554 -.00000234  00000+0  00000+0 0  9993", "line2": "2 32388   2.1279  82.9382 0004613 189.4821 190.7774  1.00273576 65979"}}, "geometry": {"type": "Point", "coordinates": [69.64409902051229, -0.4653218861187605]}}, {"type": "Feature", "properties": {"norad_id": 32729, "name": "DIRECTV 11", "group": "intelsat", "lat": 0.019747572080245527, "lon": 44.21376448953479, "alt_km": 35787.13017838309, "timestamp": "2025-12-16T03:53:26.726453+00:00", "meta": {"OBJECT_NAME": "DIRECTV 11", "OBJECT_ID": "2008-013A", "EPOCH": "2025-12-15T08:01:38.431776", "MEAN_MOTION": 1.00270669, "ECCENTRICITY": 3.538e-05, "INCLINATION": 0.0433, "RA_OF_ASC_NODE": 163.0305, "ARG_OF_PERICENTER": 0.1931, "MEAN_ANOMALY": 302.2415, "EPHEMERIS_TYPE": 0, "CLASSIFICATION_TYPE": "U", "NORAD_CAT_ID": 32729, "ELEMENT_SET_NO": 999, "REV_AT_EPOCH": 4375, "BSTAR": 0, "MEAN_MOTION_DOT": -1.04e-06, "MEAN_MOTION_DDOT": 0}, "tle": {"line1": "1 32729U 08013A   25349.33447259 -.00000104  00000+0  00000+0 0  9999", "line2": "2 32729   0.0433 163.0305 0000353   0.1931 302.2415  1.00270669 43755"}}, "geometry": {"type": "Point", "coordinates": [44.21376448953479, 0.019747572080245527]}}, {"type": "Feature", "properties": {"norad_id": 32951, "name": "GALAXY 18 (G-18)", "group": "intelsat", "lat": 0.021685540823056758, "lon": 20.41719012558265, "alt_km": 35790.00615171636, "timestamp": "2025-12-16T03:53:26.726465+00:00", "meta": {"OBJECT_NAME": "GALAXY 18 (G-18)", "OBJECT_ID": "2008-024A", "EPOCH": "2025-12-15T08:27:38.617056", "MEAN_MOTION": 1.00271362, "ECCENTRICITY": 0.00028339, "INCLINATION": 0.0232, "RA_OF_ASC_NODE": 0.0013, "ARG_OF_PERICENTER": 271.7521, "MEAN_ANOMALY": 176.3969, "EPHEMERIS_TYPE": 0, "CLASSIFICATION_TYPE": "U", "NORAD_CAT_ID": 32951, "ELEMENT_SET_NO": 999, "REV_AT_EPOCH": 4401, "BSTAR": 0, "MEAN_MOTION_DOT": 0, "MEAN_MOTION_DDOT": 0}, "tle": {"line1": "1 32951U 08024A   25349.35253029  .00000000  00000+0  00000+0 0  9994", "line2": "2 32951   0.0232   0.0013 0002833 271.7521 176.3969  1.00271362 44016"}}, "geometry": {"type": "Point", "coordinates": [20.41719012558265, 0.021685540823056758]}}]}